2024-153A               
1 60745U 24153A   26162.98511469  .00047482  00000+0  94897-3 0  9991
2 60745  97.6716 304.4579 0007392 161.7219 198.4297 15.46634195 99305
2024-153B               
1 60746U 24153B   26162.96152345  .00012367  00000+0  38727-3 0  9998
2 60746  97.6769 302.2279 0010242 173.3429 186.7951 15.33203621 99159
2024-153C               
1 60747U 24153C   26162.97055652  .00024338  00000+0  58530-3 0  9998
2 60747  97.6761 305.1206 0009445 166.2725 193.8779 15.41262454 99343
2024-153D               
1 60748U 24153D   26162.92779493  .00014545  00000+0  53923-3 0  9990
2 60748  97.6776 300.6829 0001836 182.6220 177.5009 15.27728161 99047
2024-153E               
1 60749U 24153E   26162.95366898  .00013663  00000+0  51930-3 0  9991
2 60749  97.6703 300.1495 0001067 315.0340  45.0811 15.26919760 99038
2024-153F               
1 60750U 24153F   26162.95885920  .00012219  00000+0  48040-3 0  9999
2 60750  97.6701 299.4014 0004348 261.8318  98.2426 15.25815673 99009
STARLINK-11242 [DTC]    
1 60903U 24154A   26162.89327372 -.00000516  00000+0  59331-6 0  9991
2 60903  53.1587  26.6191 0000882  90.8211 269.2908 15.69709169103310
STARLINK-11256 [DTC]    
1 60904U 24154B   26162.88836808 -.00000018  00000+0  47072-5 0  9995
2 60904  53.1578  26.5853 0000965  49.6613 310.4489 15.69707921103312
STARLINK-11159 [DTC]    
1 60905U 24154C   26162.87866480 -.00000947  00000+0 -29658-5 0  9996
2 60905  53.1588  27.2530 0000705  82.3534 277.7564 15.69710712103302
STARLINK-11264 [DTC]    
1 60906U 24154D   26162.87376043  .00004675  00000+0  43458-4 0  9991
2 60906  53.1588  27.2209 0001077 120.0730 240.0395 15.69691483103305
STARLINK-11226 [DTC]    
1 60907U 24154E   26162.93251709  .00000011  00000+0  49467-5 0  9997
2 60907  53.1591  26.8789 0000914  86.2526 273.8596 15.69711525103311
STARLINK-11229 [DTC]    
1 60908U 24154F   26162.92761344 -.00000021  00000+0  46885-5 0  9991
2 60908  53.1587  26.8456 0001143  72.9114 287.2029 15.69709943103319
STARLINK-11265 [DTC]    
1 60909U 24154G   26162.88356383  .00000368  00000+0  79003-5 0  9991
2 60909  53.1576  27.2818 0001184  41.3674 318.7434 15.69712103103302
STARLINK-11250 [DTC]    
1 60910U 24154H   26162.92270766 -.00000645  00000+0 -46589-6 0  9992
2 60910  53.1586  26.8122 0001070  71.0117 289.1017 15.69706555103317
STARLINK-11190 [DTC]    
1 60911U 24154J   26162.85413303 -.00000360  00000+0  18880-5 0  9996
2 60911  53.1589  27.0925 0001067  75.8604 284.2532 15.69705917103290
STARLINK-11225 [DTC]    
1 60912U 24154K   26162.78555356  .00001428  00000+0  16636-4 0  9995
2 60912  53.1589  27.3705 0000825  77.1576 282.9534 15.69711247103283
STARLINK-11273 [DTC]    
1 60913U 24154L   26162.90798579 -.00000310  00000+0  22970-5 0  9995
2 60913  53.1579  26.7123 0000688 110.2288 249.8804 15.69715264103304
STARLINK-11271 [DTC]    
1 60915U 24154N   26162.89817739  .00000257  00000+0  69743-5 0  9993
2 60915  53.1597  26.6439 0000995 101.7540 258.3590 15.69710758103302
STARLINK-32371          
1 60916U 24154P   26162.39335817 -.00000316  00000+0  16004-5 0  9990
2 60916  53.1605 208.4409 0001454  82.5855 277.5311 15.31700485100683
STARLINK-32369          
1 60917U 24154Q   26161.40935540  .00000410  00000+0  25985-4 0  9992
2 60917  53.1602 212.9659 0001270  92.6253 267.4893 15.30196163100536
STARLINK-32317          
1 60918U 24154R   26162.43340503 -.00002627  00000+0 -76620-4 0  9992
2 60918  53.1594 208.6877 0000932  87.5858 272.5249 15.30192920100684
STARLINK-32367          
1 60919U 24154S   26162.44278812  .00000039  00000+0  13460-4 0  9993
2 60919  53.1591 208.0384 0001221  89.6767 270.4374 15.30189885100696
STARLINK-32345          
1 60920U 24154T   26162.36914383 -.00000019  00000+0  11488-4 0  9993
2 60920  53.1599 208.9981 0001125  86.4613 273.6516 15.30193481100685
STARLINK-32356          
1 60921U 24154U   26162.44925050 -.00000477  00000+0 -36134-5 0  9991
2 60921  53.1591 208.0737 0001120  91.5182 268.5948 15.31722312100708
STARLINK-32274          
1 60922U 24154V   26162.41546291  .00000067  00000+0  14400-4 0  9999
2 60922  53.1591 208.5752 0000931  70.4568 289.6534 15.30193733100695
STARLINK-32373          
1 60923U 24154W   26162.42494222  .00005166  00000+0  18631-3 0  9991
2 60923  53.1578 208.6340 0001099 100.9534 259.1591 15.30218684100691
STARLINK-11239 [DTC]    
1 60924U 24155A   26162.76845686  .00002916  00000+0  28892-4 0  9995
2 60924  53.1587 237.8392 0001565  58.9334 301.1837 15.69738113103174
STARLINK-11245 [DTC]    
1 60925U 24155B   26162.43540391 -.00003196  00000+0 -21527-4 0  9996
2 60925  53.1584 239.3098 0000845  70.9643 289.1466 15.69717588103120
STARLINK-11244 [DTC]    
1 60926U 24155C   26162.48926730  .00000876  00000+0  12089-4 0  9990
2 60926  53.1571 238.9296 0000828  87.8107 272.3005 15.69694159103182
STARLINK-11243 [DTC]    
1 60927U 24155D   26162.49417340  .00000506  00000+0  90334-5 0  9994
2 60927  53.1589 238.9633 0001017  69.4750 290.6377 15.69704610103132
