OBJECT_NAME,OBJECT_ID,EPOCH,MEAN_MOTION,ECCENTRICITY,INCLINATION,RA_OF_ASC_NODE,ARG_OF_PERICENTER,MEAN_ANOMALY,EPHEMERIS_TYPE,CLASSIFICATION_TYPE,NORAD_CAT_ID,ELEMENT_SET_NO,REV_AT_EPOCH,BSTAR,MEAN_MOTION_DOT,MEAN_MOTION_DDOT
2024-153A,2024-153A,2026-06-11T23:38:33.909216,15.46634195,.00073922,97.6716,304.4579,161.7219,198.4297,0,U,60745,999,9930,.94897481E-3,.47482E-3,0
2024-153B,2024-153B,2026-06-11T23:04:35.626080,15.33203621,.0010242,97.6769,302.2279,173.3429,186.7951,0,U,60746,999,9915,.38726698E-3,.12367E-3,0
2024-153C,2024-153C,2026-06-11T23:17:36.083328,15.41262454,.0009445,97.6761,305.1206,166.2725,193.8779,0,U,60747,999,9934,.58530343E-3,.24338E-3,0
2024-153D,2024-153D,2026-06-11T22:16:01.481952,15.27728161,.00018361,97.6776,300.6829,182.6220,177.5009,0,U,60748,999,9904,.53922793E-3,.14545E-3,0
2024-153E,2024-153E,2026-06-11T22:53:16.999872,15.26919760,.00010678,97.6703,300.1495,315.0340,45.0811,0,U,60749,999,9903,.51930366E-3,.13663E-3,0
2024-153F,2024-153F,2026-06-11T23:00:45.434880,15.25815673,.00043484,97.6701,299.4014,261.8318,98.2426,0,U,60750,999,9900,.48039702E-3,.12219E-3,0
STARLINK-11242 [DTC],2024-154A,2026-06-11T21:26:18.849408,15.69709169,.00008821,53.1587,26.6191,90.8211,269.2908,0,U,60903,999,10331,.593311E-6,-.516E-5,0
STARLINK-11256 [DTC],2024-154B,2026-06-11T21:19:15.002112,15.69707921,.00009659,53.1578,26.5853,49.6613,310.4489,0,U,60904,999,10331,.4707241E-5,-.18E-6,0
STARLINK-11159 [DTC],2024-154C,2026-06-11T21:05:16.638720,15.69710712,.00007057,53.1588,27.2530,82.3534,277.7564,0,U,60905,999,10330,-.2965821E-5,-.947E-5,0
STARLINK-11264 [DTC],2024-154D,2026-06-11T20:58:12.901152,15.69691483,.00010776,53.1588,27.2209,120.0730,240.0395,0,U,60906,999,10330,.43458314E-4,.4675E-4,0
STARLINK-11226 [DTC],2024-154E,2026-06-11T22:22:49.476576,15.69711525,.00009142,53.1591,26.8789,86.2526,273.8596,0,U,60907,999,10331,.494666E-5,.11E-6,0
STARLINK-11229 [DTC],2024-154F,2026-06-11T22:15:45.801216,15.69709943,.00011436,53.1587,26.8456,72.9114,287.2029,0,U,60908,999,10331,.4688468E-5,-.21E-6,0
STARLINK-11265 [DTC],2024-154G,2026-06-11T21:12:19.914912,15.69712103,.00011843,53.1576,27.2818,41.3674,318.7434,0,U,60909,999,10330,.790027E-5,.368E-5,0
STARLINK-11250 [DTC],2024-154H,2026-06-11T22:08:41.941824,15.69706555,.00010709,53.1586,26.8122,71.0117,289.1017,0,U,60910,999,10331,-.465887E-6,-.645E-5,0
STARLINK-11190 [DTC],2024-154J,2026-06-11T20:29:57.093792,15.69705917,.00010673,53.1589,27.0925,75.8604,284.2532,0,U,60911,999,10329,.1888009E-5,-.36E-5,0
STARLINK-11225 [DTC],2024-154K,2026-06-11T18:51:11.827584,15.69711247,.00008252,53.1589,27.3705,77.1576,282.9534,0,U,60912,999,10328,.16635828E-4,.1428E-4,0
STARLINK-11273 [DTC],2024-154L,2026-06-11T21:47:29.972256,15.69715264,.00006883,53.1579,26.7123,110.2288,249.8804,0,U,60913,999,10330,.2296969E-5,-.31E-5,0
STARLINK-11271 [DTC],2024-154N,2026-06-11T21:33:22.526496,15.69710758,.00009955,53.1597,26.6439,101.7540,258.3590,0,U,60915,999,10330,.6974342E-5,.257E-5,0
STARLINK-32371,2024-154P,2026-06-11T09:26:26.145888,15.31700485,.0001454,53.1605,208.4409,82.5855,277.5311,0,U,60916,999,10068,.16004E-5,-.316E-5,0
STARLINK-32369,2024-154Q,2026-06-10T09:49:28.306560,15.30196163,.00012702,53.1602,212.9659,92.6253,267.4893,0,U,60917,999,10053,.25985414E-4,.41E-5,0
STARLINK-32317,2024-154R,2026-06-11T10:24:06.194592,15.30192920,.0000932,53.1594,208.6877,87.5858,272.5249,0,U,60918,999,10068,-.7662E-4,-.2627E-4,0
STARLINK-32367,2024-154S,2026-06-11T10:37:36.893568,15.30189885,.0001221,53.1591,208.0384,89.6767,270.4374,0,U,60919,999,10069,.1346E-4,.39E-6,0
STARLINK-32345,2024-154T,2026-06-11T08:51:34.026912,15.30193481,.0001125,53.1599,208.9981,86.4613,273.6516,0,U,60920,999,10068,.11488E-4,-.19E-6,0
STARLINK-32356,2024-154U,2026-06-11T10:46:55.243200,15.31722312,.000112,53.1591,208.0737,91.5182,268.5948,0,U,60921,999,10070,-.36134E-5,-.477E-5,0
STARLINK-32274,2024-154V,2026-06-11T09:58:15.995424,15.30193733,.0000931,53.1591,208.5752,70.4568,289.6534,0,U,60922,999,10069,.144E-4,.67E-6,0
STARLINK-32373,2024-154W,2026-06-11T10:11:55.007808,15.30218684,.0001099,53.1578,208.6340,100.9534,259.1591,0,U,60923,999,10069,.18631E-3,.5166E-4,0
STARLINK-11239 [DTC],2024-155A,2026-06-11T18:26:34.672704,15.69738113,.00015656,53.1587,237.8392,58.9334,301.1837,0,U,60924,999,10317,.28892004E-4,.2916E-4,0
STARLINK-11245 [DTC],2024-155B,2026-06-11T10:26:58.897824,15.69717588,.0000845,53.1584,239.3098,70.9643,289.1466,0,U,60925,999,10312,-.21527E-4,-.3196E-4,0
STARLINK-11244 [DTC],2024-155C,2026-06-11T11:44:32.694720,15.69694159,.0000828,53.1571,238.9296,87.8107,272.3005,0,U,60926,999,10318,.12089E-4,.876E-5,0
STARLINK-11243 [DTC],2024-155D,2026-06-11T11:51:36.581760,15.69704610,.0001017,53.1589,238.9633,69.4750,290.6377,0,U,60927,999,10313,.90334E-5,.506E-5,0
